ONEWEB-0317             
1 49103U 21075AE  24042.37451704  .00000142  00000+0  35866-3 0  9992
2 49103  87.9041 161.1653 0001570  97.4833 262.6474 13.12444126122800
ONEWEB-0318             
1 49104U 21075AF  24042.35887878  .00000054  00000+0  10306-3 0  9990
2 49104  87.9244 145.9762 0001728 119.3532 240.7773 13.18687490124240
ONEWEB-0319             
1 49105U 21075AG  24042.38569735  .00000030  00000+0  43863-4 0  9992
2 49105  87.9246 176.2854 0001362 127.7800 232.3455 13.17650907120777
ONEWEB-0323             
1 49106U 21075AH  24042.36498176 -.00000159  00000+0 -47740-3 0  9992
2 49106  87.9039 161.1552 0001479 112.4474 247.6811 13.12443904122165
ONEWEB-0329             
1 49107U 21075AJ  24042.84923079 -.00000483  00000+0 -12781-2 0  9997
2 49107  87.9247 176.1976 0001322 108.5552 251.5723 13.17650888121805
ONEWEB-0330             
1 49108U 21075AK  24042.39520053  .00000077  00000+0  16401-3 0  9994
2 49108  87.9246 176.2872 0001257 102.6072 257.5200 13.17650039120791
ONEWEB-0292             
1 49186U 21083A   24042.77577084  .00000363  00000+0  95864-3 0  9995
2 49186  87.9004 130.7316 0001842 110.4140 249.7187 13.13470195119794
ONEWEB-0303             
1 49187U 21083B   24042.35572015  .00000058  00000+0  11536-3 0  9994
2 49187  87.9244 145.9752 0001746 115.6532 244.4780 13.18685434117055
